[{"OBJECT_NAME":"HULIANWANG DIGUI-45","OBJECT_ID":"2025-162F","EPOCH":"2026-03-09T23:06:32.991840","MEAN_MOTION":13.29333317,"ECCENTRICITY":0.00010645,"INCLINATION":50.0033,"RA_OF_ASC_NODE":261.5713,"ARG_OF_PERICENTER":89.9983,"MEAN_ANOMALY":270.1011,"EPHEMERIS_TYPE":0,"CLASSIFICATION_TYPE":"U","NORAD_CAT_ID":65048,"ELEMENT_SET_NO":999,"REV_AT_EPOCH":3016,"BSTAR":0.0001073861,"MEAN_MOTION_DOT":-7.4e-7,"MEAN_MOTION_DDOT":0},{"OBJECT_NAME":"SL-14 DEB","OBJECT_ID":"1991-056AS","EPOCH":"2026-03-06T05:18:41.193504","MEAN_MOTION":13.23680313,"ECCENTRICITY":0.00486112,"INCLINATION":82.6919,"RA_OF_ASC_NODE":251.6281,"ARG_OF_PERICENTER":89.2287,"MEAN_ANOMALY":271.4409,"EPHEMERIS_TYPE":0,"CLASSIFICATION_TYPE":"U","NORAD_CAT_ID":45304,"ELEMENT_SET_NO":999,"REV_AT_EPOCH":28890,"BSTAR":0.0066501942,"MEAN_MOTION_DOT":2.855e-5,"MEAN_MOTION_DDOT":0}]
